[{"OBJECT_NAME":"STARLINK-32672","OBJECT_ID":"2024-229D","EPOCH":"2026-02-04T06:50:37.597632","MEAN_MOTION":15.27586542,"ECCENTRICITY":0.00012208,"INCLINATION":43.002,"RA_OF_ASC_NODE":99.2789,"ARG_OF_PERICENTER":256.4799,"MEAN_ANOMALY":103.5917,"EPHEMERIS_TYPE":0,"CLASSIFICATION_TYPE":"U","NORAD_CAT_ID":62195,"ELEMENT_SET_NO":999,"REV_AT_EPOCH":6545,"BSTAR":0.00046927248,"MEAN_MOTION_DOT":0.00012676,"MEAN_MOTION_DDOT":0},{"OBJECT_NAME":"STARLINK-32682","OBJECT_ID":"2024-229E","EPOCH":"2026-02-04T03:24:12.939552","MEAN_MOTION":15.27636926,"ECCENTRICITY":0.00040684,"INCLINATION":42.9895,"RA_OF_ASC_NODE":67.4833,"ARG_OF_PERICENTER":157.2516,"MEAN_ANOMALY":202.8516,"EPHEMERIS_TYPE":0,"CLASSIFICATION_TYPE":"U","NORAD_CAT_ID":62196,"ELEMENT_SET_NO":999,"REV_AT_EPOCH":6580,"BSTAR":0.0010707619,"MEAN_MOTION_DOT":0.00029377,"MEAN_MOTION_DDOT":0},{"OBJECT_NAME":"STARLINK-32663","OBJECT_ID":"2024-229F","EPOCH":"2026-02-04T04:30:25.589088","MEAN_MOTION":15.27593202,"ECCENTRICITY":6.517e-5,"INCLINATION":42.9933,"RA_OF_ASC_NODE":100.2567,"ARG_OF_PERICENTER":213.7255,"MEAN_ANOMALY":146.3555,"EPHEMERIS_TYPE":0,"CLASSIFICATION_TYPE":"U","NORAD_CAT_ID":62197,"ELEMENT_SET_NO":999,"REV_AT_EPOCH":6543,"BSTAR":0.0013668468,"MEAN_MOTION_DOT":0.00037558,"MEAN_MOTION_DDOT":0},{"OBJECT_NAME":"STARLINK-32640","OBJECT_ID":"2024-229G","EPOCH":"2026-02-04T05:05:22.098048","MEAN_MOTION":15.27608814,"ECCENTRICITY":0.00015432,"INCLINATION":42.9957,"RA_OF_ASC_NODE":99.5876,"ARG_OF_PERICENTER":286.3513,"MEAN_ANOMALY":73.7169,"EPHEMERIS_TYPE":0,"CLASSIFICATION_TYPE":"U","NORAD_CAT_ID":62198,"ELEMENT_SET_NO":999,"REV_AT_EPOCH":6544,"BSTAR":0.0013256909,"MEAN_MOTION_DOT":0.00036431,"MEAN_MOTION_DDOT":0},{"OBJECT_NAME":"STARLINK-32653","OBJECT_ID":"2024-229H","EPOCH":"2026-02-04T04:02:12.340032","MEAN_MOTION":15.27597919,"ECCENTRICITY":0.00030786,"INCLINATION":42.9976,"RA_OF_ASC_NODE":93.1471,"ARG_OF_PERICENTER":294.6473,"MEAN_ANOMALY":65.4058,"EPHEMERIS_TYPE":0,"CLASSIFICATION_TYPE":"U","NORAD_CAT_ID":62199,"ELEMENT_SET_NO":999,"REV_AT_EPOCH":6551,"BSTAR":0.0010989513,"MEAN_MOTION_DOT":0.00030121,"MEAN_MOTION_DDOT":0},{"OBJECT_NAME":"STARLINK-32647","OBJECT_ID":"2024-229J","EPOCH":"2026-02-04T05:36:49.541472","MEAN_MOTION":15.2756933,"ECCENTRICITY":6.206e-5,"INCLINATION":42.9996,"RA_OF_ASC_NODE":99.7453,"ARG_OF_PERICENTER":231.7963,"MEAN_ANOMALY":128.2833,"EPHEMERIS_TYPE":0,"CLASSIFICATION_TYPE":"U","NORAD_CAT_ID":62200,"ELEMENT_SET_NO":999,"REV_AT_EPOCH":6544,"BSTAR":0.00084258962,"MEAN_MOTION_DOT":0.00022989,"MEAN_MOTION_DDOT":0},{"OBJECT_NAME":"STARLINK-32667","OBJECT_ID":"2024-229K","EPOCH":"2026-02-04T04:45:00.740736","MEAN_MOTION":15.27571912,"ECCENTRICITY":0.00011585,"INCLINATION":42.9979,"RA_OF_ASC_NODE":99.4784,"ARG_OF_PERICENTER":282.4413,"MEAN_ANOMALY":77.6309,"EPHEMERIS_TYPE":0,"CLASSIFICATION_TYPE":"U","NORAD_CAT_ID":62201,"ELEMENT_SET_NO":999,"REV_AT_EPOCH":6544,"BSTAR":0.00043453626,"MEAN_MOTION_DOT":0.00011712,"MEAN_MOTION_DDOT":0},{"OBJECT_NAME":"STARLINK-32655","OBJECT_ID":"2024-229L","EPOCH":"2026-02-04T04:19:19.896096","MEAN_MOTION":15.27619962,"ECCENTRICITY":0.00046084,"INCLINATION":43.0064,"RA_OF_ASC_NODE":100.2038,"ARG_OF_PERICENTER":285.9281,"MEAN_ANOMALY":74.1062,"EPHEMERIS_TYPE":0,"CLASSIFICATION_TYPE":"U","NORAD_CAT_ID":62202,"ELEMENT_SET_NO":999,"REV_AT_EPOCH":6543,"BSTAR":0.0018575959,"MEAN_MOTION_DOT":0.00051285,"MEAN_MOTION_DDOT":0},{"OBJECT_NAME":"STARLINK-32665","OBJECT_ID":"2024-229M","EPOCH":"2026-02-04T03:53:25.320768","MEAN_MOTION":15.27596457,"ECCENTRICITY":5.321e-5,"INCLINATION":43.0005,"RA_OF_ASC_NODE":100.073,"ARG_OF_PERICENTER":7.7795,"MEAN_ANOMALY":352.3065,"EPHEMERIS_TYPE":0,"CLASSIFICATION_TYPE":"U","NORAD_CAT_ID":62203,"ELEMENT_SET_NO":999,"REV_AT_EPOCH":6543,"BSTAR":0.0014034849,"MEAN_MOTION_DOT":0.0003858,"MEAN_MOTION_DDOT":0},{"OBJECT_NAME":"STARLINK-32664","OBJECT_ID":"2024-229N","EPOCH":"2026-02-04T05:42:08.779968","MEAN_MOTION":15.27710223,"ECCENTRICITY":0.00015082,"INCLINATION":43.0023,"RA_OF_ASC_NODE":99.7757,"ARG_OF_PERICENTER":264.9407,"MEAN_ANOMALY":95.1272,"EPHEMERIS_TYPE":0,"CLASSIFICATION_TYPE":"U","NORAD_CAT_ID":62204,"ELEMENT_SET_NO":999,"REV_AT_EPOCH":6544,"BSTAR":0.00090520104,"MEAN_MOTION_DOT":0.0002483,"MEAN_MOTION_DDOT":0},{"OBJECT_NAME":"STARLINK-32660","OBJECT_ID":"2024-229P","EPOCH":"2026-02-04T04:51:29.673792","MEAN_MOTION":15.27596436,"ECCENTRICITY":0.00014922,"INCLINATION":43.0002,"RA_OF_ASC_NODE":85.6373,"ARG_OF_PERICENTER":199.5677,"MEAN_ANOMALY":160.5118,"EPHEMERIS_TYPE":0,"CLASSIFICATION_TYPE":"U","NORAD_CAT_ID":62205,"ELEMENT_SET_NO":999,"REV_AT_EPOCH":6560,"BSTAR":0.00090141441,"MEAN_MOTION_DOT":0.00024638,"MEAN_MOTION_DDOT":0},{"OBJECT_NAME":"STARLINK-32448","OBJECT_ID":"2024-229Q","EPOCH":"2026-02-04T04:50:34.133280","MEAN_MOTION":15.27585798,"ECCENTRICITY":5.848e-5,"INCLINATION":42.9951,"RA_OF_ASC_NODE":99.5026,"ARG_OF_PERICENTER":210.7117,"MEAN_ANOMALY":149.37,"EPHEMERIS_TYPE":0,"CLASSIFICATION_TYPE":"U","NORAD_CAT_ID":62206,"ELEMENT_SET_NO":999,"REV_AT_EPOCH":6544,"BSTAR":0.00098697096,"MEAN_MOTION_DOT":0.00027002,"MEAN_MOTION_DDOT":0},{"OBJECT_NAME":"STARLINK-32430","OBJECT_ID":"2024-229R","EPOCH":"2026-02-04T04:10:46.010496","MEAN_MOTION":15.27593404,"ECCENTRICITY":0.00011796,"INCLINATION":42.9971,"RA_OF_ASC_NODE":96.7057,"ARG_OF_PERICENTER":128.3032,"MEAN_ANOMALY":231.7926,"EPHEMERIS_TYPE":0,"CLASSIFICATION_TYPE":"U","NORAD_CAT_ID":62207,"ELEMENT_SET_NO":999,"REV_AT_EPOCH":6547,"BSTAR":0.0015399795,"MEAN_MOTION_DOT":0.00042376,"MEAN_MOTION_DDOT":0},{"OBJECT_NAME":"STARLINK-32675","OBJECT_ID":"2024-229S","EPOCH":"2026-02-04T05:22:01.516224","MEAN_MOTION":15.27594194,"ECCENTRICITY":6.484e-5,"INCLINATION":42.9985,"RA_OF_ASC_NODE":99.6747,"ARG_OF_PERICENTER":282.3919,"MEAN_ANOMALY":77.686,"EPHEMERIS_TYPE":0,"CLASSIFICATION_TYPE":"U","NORAD_CAT_ID":62208,"ELEMENT_SET_NO":999,"REV_AT_EPOCH":6544,"BSTAR":0.0014491527,"MEAN_MOTION_DOT":0.00039848,"MEAN_MOTION_DDOT":0},{"OBJECT_NAME":"STARLINK-32671","OBJECT_ID":"2024-229T","EPOCH":"2026-02-04T04:39:40.450752","MEAN_MOTION":15.27600371,"ECCENTRICITY":5.755e-5,"INCLINATION":42.993,"RA_OF_ASC_NODE":100.3058,"ARG_OF_PERICENTER":3.0684,"MEAN_ANOMALY":357.0171,"EPHEMERIS_TYPE":0,"CLASSIFICATION_TYPE":"U","NORAD_CAT_ID":62209,"ELEMENT_SET_NO":999,"REV_AT_EPOCH":6543,"BSTAR":0.001204075,"MEAN_MOTION_DOT":0.00033041,"MEAN_MOTION_DDOT":0},{"OBJECT_NAME":"STARLINK-32670","OBJECT_ID":"2024-229U","EPOCH":"2026-02-04T05:10:55.462944","MEAN_MOTION":15.27596246,"ECCENTRICITY":5.026e-5,"INCLINATION":42.9984,"RA_OF_ASC_NODE":99.6148,"ARG_OF_PERICENTER":319.6817,"MEAN_ANOMALY":40.3998,"EPHEMERIS_TYPE":0,"CLASSIFICATION_TYPE":"U","NORAD_CAT_ID":62210,"ELEMENT_SET_NO":999,"REV_AT_EPOCH":6544,"BSTAR":0.0014299947,"MEAN_MOTION_DOT":0.00039318,"MEAN_MOTION_DDOT":0},{"OBJECT_NAME":"STARLINK-32642","OBJECT_ID":"2024-229V","EPOCH":"2026-02-04T05:01:40.181376","MEAN_MOTION":15.27590197,"ECCENTRICITY":0.00010715,"INCLINATION":42.9921,"RA_OF_ASC_NODE":99.563,"ARG_OF_PERICENTER":145.8991,"MEAN_ANOMALY":214.193,"EPHEMERIS_TYPE":0,"CLASSIFICATION_TYPE":"U","NORAD_CAT_ID":62211,"ELEMENT_SET_NO":999,"REV_AT_EPOCH":6544,"BSTAR":0.00083888732,"MEAN_MOTION_DOT":0.00022901,"MEAN_MOTION_DDOT":0},{"OBJECT_NAME":"STARLINK-32668","OBJECT_ID":"2024-229W","EPOCH":"2026-02-04T04:16:20.347392","MEAN_MOTION":15.27622495,"ECCENTRICITY":0.00010368,"INCLINATION":42.9971,"RA_OF_ASC_NODE":96.7345,"ARG_OF_PERICENTER":279.5769,"MEAN_ANOMALY":80.4966,"EPHEMERIS_TYPE":0,"CLASSIFICATION_TYPE":"U","NORAD_CAT_ID":62212,"ELEMENT_SET_NO":999,"REV_AT_EPOCH":6547,"BSTAR":0.0013511197,"MEAN_MOTION_DOT":0.00037154,"MEAN_MOTION_DDOT":0},{"OBJECT_NAME":"STARLINK-32669","OBJECT_ID":"2024-229X","EPOCH":"2026-02-04T04:24:52.499808","MEAN_MOTION":15.27592171,"ECCENTRICITY":0.00017682,"INCLINATION":42.9987,"RA_OF_ASC_NODE":100.2296,"ARG_OF_PERICENTER":287.5826,"MEAN_ANOMALY":72.4832,"EPHEMERIS_TYPE":0,"CLASSIFICATION_TYPE":"U","NORAD_CAT_ID":62213,"ELEMENT_SET_NO":999,"REV_AT_EPOCH":6543,"BSTAR":0.00093749497,"MEAN_MOTION_DOT":0.00025635,"MEAN_MOTION_DDOT":0},{"OBJECT_NAME":"STARLINK-32666","OBJECT_ID":"2024-229Y","EPOCH":"2026-02-04T04:34:07.350240","MEAN_MOTION":15.27602492,"ECCENTRICITY":3.186e-5,"INCLINATION":42.9958,"RA_OF_ASC_NODE":100.2755,"ARG_OF_PERICENTER":227.4492,"MEAN_ANOMALY":132.6333,"EPHEMERIS_TYPE":0,"CLASSIFICATION_TYPE":"U","NORAD_CAT_ID":62214,"ELEMENT_SET_NO":999,"REV_AT_EPOCH":6543,"BSTAR":0.0011107935,"MEAN_MOTION_DOT":0.00030452,"MEAN_MOTION_DDOT":0},{"OBJECT_NAME":"STARLINK-32662","OBJECT_ID":"2024-229Z","EPOCH":"2026-02-04T04:13:46.113024","MEAN_MOTION":15.27594837,"ECCENTRICITY":0.00014835,"INCLINATION":42.9964,"RA_OF_ASC_NODE":100.1673,"ARG_OF_PERICENTER":177.3021,"MEAN_ANOMALY":182.7839,"EPHEMERIS_TYPE":0,"CLASSIFICATION_TYPE":"U","NORAD_CAT_ID":62215,"ELEMENT_SET_NO":999,"REV_AT_EPOCH":6543,"BSTAR":0.00098822312,"MEAN_MOTION_DOT":0.00027044,"MEAN_MOTION_DDOT":0},{"OBJECT_NAME":"STARLINK-11394 [DTC]","OBJECT_ID":"2024-231A","EPOCH":"2026-02-03T21:30:06.803712","MEAN_MOTION":15.6974992,"ECCENTRICITY":8.841e-5,"INCLINATION":53.157,"RA_OF_ASC_NODE":267.8696,"ARG_OF_PERICENTER":69.5002,"MEAN_ANOMALY":290.6111,"EPHEMERIS_TYPE":0,"CLASSIFICATION_TYPE":"U","NORAD_CAT_ID":62218,"ELEMENT_SET_NO":999,"REV_AT_EPOCH":6810,"BSTAR":0.0011283087,"MEAN_MOTION_DOT":0.0013864,"MEAN_MOTION_DDOT":0},{"OBJECT_NAME":"STARLINK-11490 [DTC]","OBJECT_ID":"2024-231B","EPOCH":"2026-02-04T03:43:52.589856","MEAN_MOTION":15.6993024,"ECCENTRICITY":0.0002408,"INCLINATION":53.1567,"RA_OF_ASC_NODE":266.6548,"ARG_OF_PERICENTER":160.1896,"MEAN_ANOMALY":199.9216,"EPHEMERIS_TYPE":0,"CLASSIFICATION_TYPE":"U","NORAD_CAT_ID":62219,"ELEMENT_SET_NO":999,"REV_AT_EPOCH":6814,"BSTAR":0.0015694408,"MEAN_MOTION_DOT":0.00195894,"MEAN_MOTION_DDOT":0}]
